[
    {
        "Altitude(m)": 571029.9385536881,
        "Argument of Periapsis(deg)": -0.015068773855314936,
        "Eccentricity": 0.0,
        "Inclination(deg)": 97.0,
        "Latitude(deg)": -19.773008857577842,
        "Longitude(deg)": -39.03694641312934,
        "Mean Anomaly(deg)": -19.68020448720832,
        "RAAN(deg)": 60.00396470241234,
        "Satellite Name": "Starlink Shell 3 1751",
        "Satellite Number": 1751,
        "Semi-Major Axis(m)": 6938478.169268562,
        "Time(s)": 380
    },
    {
        "Altitude(m)": 570829.8984788944,
        "Argument of Periapsis(deg)": -0.015465320535717962,
        "Eccentricity": 0.0,
        "Inclination(deg)": 97.0,
        "Latitude(deg)": -19.150525471494202,
        "Longitude(deg)": -39.164210538391806,
        "Mean Anomaly(deg)": -19.05472828950326,
        "RAAN(deg)": 60.00406903668634,
        "Satellite Name": "Starlink Shell 3 1751",
        "Satellite Number": 1751,
        "Semi-Major Axis(m)": 6938478.169268562,
        "Time(s)": 390
    },
    {
        "Altitude(m)": 570632.9151387686,
        "Argument of Periapsis(deg)": -0.015861867216120987,
        "Eccentricity": 0.0,
        "Inclination(deg)": 97.0,
        "Latitude(deg)": -18.527935504721473,
        "Longitude(deg)": -39.29084050301395,
        "Mean Anomaly(deg)": -18.42925209179825,
        "RAAN(deg)": 60.00417337096035,
        "Satellite Name": "Starlink Shell 3 1751",
        "Satellite Number": 1751,
        "Semi-Major Axis(m)": 6938478.169268562,
        "Time(s)": 400
    },
    {
        "Altitude(m)": 570439.0558181164,
        "Argument of Periapsis(deg)": -0.01625841389652401,
        "Eccentricity": 0.0,
        "Inclination(deg)": 97.0,
        "Latitude(deg)": -17.905242015223667,
        "Longitude(deg)": -39.4168626095594,
        "Mean Anomaly(deg)": -17.803775894093242,
        "RAAN(deg)": 60.00427770523436,
        "Satellite Name": "Starlink Shell 3 1751",
        "Satellite Number": 1751,
        "Semi-Major Axis(m)": 6938478.169268562,
        "Time(s)": 410
    },
    {
        "Altitude(m)": 570248.3862156642,
        "Argument of Periapsis(deg)": -0.016654960576927034,
        "Eccentricity": 0.0,
        "Inclination(deg)": 97.0,
        "Latitude(deg)": -17.28244804844594,
        "Longitude(deg)": -39.54230300928302,
        "Mean Anomaly(deg)": -17.178299696388137,
        "RAAN(deg)": 60.00438203950837,
        "Satellite Name": "Starlink Shell 3 1751",
        "Satellite Number": 1751,
        "Semi-Major Axis(m)": 6938478.169268562,
        "Time(s)": 420
    },
    {
        "Altitude(m)": 570060.9704143442,
        "Argument of Periapsis(deg)": -0.01705150725733006,
        "Eccentricity": 0.0,
        "Inclination(deg)": 97.0,
        "Latitude(deg)": -16.659556638710498,
        "Longitude(deg)": -39.66718723202587,
        "Mean Anomaly(deg)": -16.552823498683132,
        "RAAN(deg)": 60.004486373782385,
        "Satellite Name": "Starlink Shell 3 1751",
        "Satellite Number": 1751,
        "Semi-Major Axis(m)": 6938478.169268562,
        "Time(s)": 430
    },
    {
        "Altitude(m)": 569876.870852387,
        "Argument of Periapsis(deg)": -0.017448053937733084,
        "Eccentricity": 0.0,
        "Inclination(deg)": 97.0,
        "Latitude(deg)": -16.0365708105061,
        "Longitude(deg)": -39.7915397146541,
        "Mean Anomaly(deg)": -15.927347300978028,
        "RAAN(deg)": 60.00459070805639,
        "Satellite Name": "Starlink Shell 3 1751",
        "Satellite Number": 1751,
        "Semi-Major Axis(m)": 6938478.169268562,
        "Time(s)": 440
    },
    {
        "Altitude(m)": 569696.1482952262,
        "Argument of Periapsis(deg)": -0.017844600618136107,
        "Eccentricity": 0.0,
        "Inclination(deg)": 97.0,
        "Latitude(deg)": -15.413493579682436,
        "Longitude(deg)": -39.91538484100788,
        "Mean Anomaly(deg)": -15.301871103273058,
        "RAAN(deg)": 60.00469504233039,
        "Satellite Name": "Starlink Shell 3 1751",
        "Satellite Number": 1751,
        "Semi-Major Axis(m)": 6938478.169268562,
        "Time(s)": 450
    },
    {
        "Altitude(m)": 569518.8618082023,
        "Argument of Periapsis(deg)": -0.018241147298539134,
        "Eccentricity": 0.0,
        "Inclination(deg)": 97.0,
        "Latitude(deg)": -14.790327954547633,
        "Longitude(deg)": -40.03874646770021,
        "Mean Anomaly(deg)": -14.676394905568007,
        "RAAN(deg)": 60.0047993766044,
        "Satellite Name": "Starlink Shell 3 1751",
        "Satellite Number": 1751,
        "Semi-Major Axis(m)": 6938478.169268562,
        "Time(s)": 460
    },
    {
        "Altitude(m)": 569345.0687301185,
        "Argument of Periapsis(deg)": -0.018637693978942157,
        "Eccentricity": 0.0,
        "Inclination(deg)": 97.0,
        "Latitude(deg)": -14.167076936879894,
        "Longitude(deg)": -40.16164744872208,
        "Mean Anomaly(deg)": -14.050918707862948,
        "RAAN(deg)": 60.004903710878416,
        "Satellite Name": "Starlink Shell 3 1751",
        "Satellite Number": 1751,
        "Semi-Major Axis(m)": 6938478.169268562,
        "Time(s)": 470
    },
    {
        "Altitude(m)": 569174.8246476568,
        "Argument of Periapsis(deg)": -0.019034240659345183,
        "Eccentricity": 0.0,
        "Inclination(deg)": 97.0,
        "Latitude(deg)": -13.543743522857717,
        "Longitude(deg)": -40.28411067180449,
        "Mean Anomaly(deg)": -13.425442510157895,
        "RAAN(deg)": 60.00500804515242,
        "Satellite Name": "Starlink Shell 3 1751",
        "Satellite Number": 1751,
        "Semi-Major Axis(m)": 6938478.169268562,
        "Time(s)": 480
    },
    {
        "Altitude(m)": 569008.1833706276,
        "Argument of Periapsis(deg)": -0.019430787339748207,
        "Eccentricity": 0.0,
        "Inclination(deg)": 97.0,
        "Latitude(deg)": -12.920330703911205,
        "Longitude(deg)": -40.40615858086311,
        "Mean Anomaly(deg)": -12.799966312452836,
        "RAAN(deg)": 60.00511237942644,
        "Satellite Name": "Starlink Shell 3 1751",
        "Satellite Number": 1751,
        "Semi-Major Axis(m)": 6938478.169268562,
        "Time(s)": 490
    },
    {
        "Altitude(m)": 568845.1969081565,
        "Argument of Periapsis(deg)": -0.019827334020151237,
        "Eccentricity": 0.0,
        "Inclination(deg)": 97.0,
        "Latitude(deg)": -12.296841467500755,
        "Longitude(deg)": -40.52781269746905,
        "Mean Anomaly(deg)": -12.174490114747822,
        "RAAN(deg)": 60.005216713700435,
        "Satellite Name": "Starlink Shell 3 1751",
        "Satellite Number": 1751,
        "Semi-Major Axis(m)": 6938478.169268562,
        "Time(s)": 500
    },
    {
        "Altitude(m)": 568685.9154457111,
        "Argument of Periapsis(deg)": -0.020223880700554257,
        "Eccentricity": 0.0,
        "Inclination(deg)": 97.0,
        "Latitude(deg)": -11.67327879782941,
        "Longitude(deg)": -40.64909465428334,
        "Mean Anomaly(deg)": -11.549013917042764,
        "RAAN(deg)": 60.00532104797445,
        "Satellite Name": "Starlink Shell 3 1751",
        "Satellite Number": 1751,
        "Semi-Major Axis(m)": 6938478.169268562,
        "Time(s)": 510
    },
    {
        "Altitude(m)": 568530.3873230747,
        "Argument of Periapsis(deg)": -0.020620427380957283,
        "Eccentricity": 0.0,
        "Inclination(deg)": 97.0,
        "Latitude(deg)": -11.049645676489748,
        "Longitude(deg)": -40.770025714770966,
        "Mean Anomaly(deg)": -10.92353771933771,
        "RAAN(deg)": 60.005425382248454,
        "Satellite Name": "Starlink Shell 3 1751",
        "Satellite Number": 1751,
        "Semi-Major Axis(m)": 6938478.169268562,
        "Time(s)": 520
    },
    {
        "Altitude(m)": 568378.6590132128,
        "Argument of Periapsis(deg)": -0.021016974061360306,
        "Eccentricity": 0.0,
        "Inclination(deg)": 97.0,
        "Latitude(deg)": -10.425945083050744,
        "Longitude(deg)": -40.89062629212633,
        "Mean Anomaly(deg)": -10.298061521632652,
        "RAAN(deg)": 60.005529716522474,
        "Satellite Name": "Starlink Shell 3 1751",
        "Satellite Number": 1751,
        "Semi-Major Axis(m)": 6938478.169268562,
        "Time(s)": 530
    },
    {
        "Altitude(m)": 568230.7751021157,
        "Argument of Periapsis(deg)": -0.021413520741763333,
        "Eccentricity": 0.0,
        "Inclination(deg)": 97.0,
        "Latitude(deg)": -9.802179995590851,
        "Longitude(deg)": -41.010916980338976,
        "Mean Anomaly(deg)": -9.672585323927601,
        "RAAN(deg)": 60.00563405079649,
        "Satellite Name": "Starlink Shell 3 1751",
        "Satellite Number": 1751,
        "Semi-Major Axis(m)": 6938478.169268562,
        "Time(s)": 540
    },
    {
        "Altitude(m)": 568086.7782695295,
        "Argument of Periapsis(deg)": -0.021810067422166356,
        "Eccentricity": 0.0,
        "Inclination(deg)": 97.0,
        "Latitude(deg)": -9.178353391177156,
        "Longitude(deg)": -41.13091807170652,
        "Mean Anomaly(deg)": -9.047109126222542,
        "RAAN(deg)": 60.005738385070494,
        "Satellite Name": "Starlink Shell 3 1751",
        "Satellite Number": 1751,
        "Semi-Major Axis(m)": 6938478.169268562,
        "Time(s)": 550
    },
    {
        "Altitude(m)": 567946.7092706839,
        "Argument of Periapsis(deg)": -0.022206614102569383,
        "Eccentricity": 0.0,
        "Inclination(deg)": 97.0,
        "Latitude(deg)": -8.554468246296075,
        "Longitude(deg)": -41.25064907371804,
        "Mean Anomaly(deg)": -8.421632928517528,
        "RAAN(deg)": 60.0058427193445,
        "Satellite Name": "Starlink Shell 3 1751",
        "Satellite Number": 1751,
        "Semi-Major Axis(m)": 6938478.169268562,
        "Time(s)": 560
    }
]